[{"OBJECT_NAME":"STARLINK-5424","OBJECT_ID":"2022-175BF","EPOCH":"2026-03-09T06:12:47.378880","MEAN_MOTION":15.08863318,"ECCENTRICITY":0.00012769,"INCLINATION":53.2194,"RA_OF_ASC_NODE":26.1027,"ARG_OF_PERICENTER":93.2399,"MEAN_ANOMALY":266.874,"EPHEMERIS_TYPE":0,"CLASSIFICATION_TYPE":"U","NORAD_CAT_ID":54811,"ELEMENT_SET_NO":999,"REV_AT_EPOCH":18013,"BSTAR":0.00077622341,"MEAN_MOTION_DOT":0.00012095,"MEAN_MOTION_DDOT":0},{"OBJECT_NAME":"SEDNA-2","OBJECT_ID":"2025-009DQ","EPOCH":"2026-03-09T19:10:28.282944","MEAN_MOTION":15.10492622,"ECCENTRICITY":0.0010309,"INCLINATION":97.4615,"RA_OF_ASC_NODE":144.8075,"ARG_OF_PERICENTER":53.026,"MEAN_ANOMALY":307.1912,"EPHEMERIS_TYPE":0,"CLASSIFICATION_TYPE":"U","NORAD_CAT_ID":63153,"ELEMENT_SET_NO":999,"REV_AT_EPOCH":6311,"BSTAR":0.00049393403,"MEAN_MOTION_DOT":8.085e-5,"MEAN_MOTION_DDOT":0}]
